[{"OBJECT_NAME":"CZ-2D R/B","OBJECT_ID":"2005-024B","EPOCH":"2026-03-03T02:26:18.444768","MEAN_MOTION":15.59451942,"ECCENTRICITY":0.0006807,"INCLINATION":97.3595,"RA_OF_ASC_NODE":77.0089,"ARG_OF_PERICENTER":63.3295,"MEAN_ANOMALY":296.8658,"EPHEMERIS_TYPE":0,"CLASSIFICATION_TYPE":"U","NORAD_CAT_ID":28738,"ELEMENT_SET_NO":999,"REV_AT_EPOCH":13875,"BSTAR":0.00058534,"MEAN_MOTION_DOT":0.00046432,"MEAN_MOTION_DDOT":0},{"OBJECT_NAME":"ALOS (DAICHI)","OBJECT_ID":"2006-002A","EPOCH":"2026-03-02T21:35:10.205088","MEAN_MOTION":14.69783069,"ECCENTRICITY":0.0001184,"INCLINATION":98.1206,"RA_OF_ASC_NODE":17.8895,"ARG_OF_PERICENTER":51.1652,"MEAN_ANOMALY":308.966,"EPHEMERIS_TYPE":0,"CLASSIFICATION_TYPE":"U","NORAD_CAT_ID":28931,"ELEMENT_SET_NO":999,"REV_AT_EPOCH":7248,"BSTAR":0.00029746,"MEAN_MOTION_DOT":1.726e-5,"MEAN_MOTION_DDOT":0},{"OBJECT_NAME":"H-2A R/B","OBJECT_ID":"2006-002B","EPOCH":"2026-03-02T22:39:38.484288","MEAN_MOTION":15.16243282,"ECCENTRICITY":0.0051953,"INCLINATION":98.2396,"RA_OF_ASC_NODE":208.3895,"ARG_OF_PERICENTER":264.2394,"MEAN_ANOMALY":95.2912,"EPHEMERIS_TYPE":0,"CLASSIFICATION_TYPE":"U","NORAD_CAT_ID":28932,"ELEMENT_SET_NO":999,"REV_AT_EPOCH":9341,"BSTAR":0.00058336,"MEAN_MOTION_DOT":0.00011604,"MEAN_MOTION_DDOT":0},{"OBJECT_NAME":"RESURS-DK 1","OBJECT_ID":"2006-021A","EPOCH":"2026-03-02T23:44:16.415232","MEAN_MOTION":15.12690123,"ECCENTRICITY":0.0002469,"INCLINATION":69.9302,"RA_OF_ASC_NODE":254.357,"ARG_OF_PERICENTER":165.6054,"MEAN_ANOMALY":194.5183,"EPHEMERIS_TYPE":0,"CLASSIFICATION_TYPE":"U","NORAD_CAT_ID":29228,"ELEMENT_SET_NO":999,"REV_AT_EPOCH":8651,"BSTAR":0.0001801,"MEAN_MOTION_DOT":3.053e-5,"MEAN_MOTION_DDOT":0},{"OBJECT_NAME":"CZ-4B R/B","OBJECT_ID":"2006-046C","EPOCH":"2026-03-03T01:52:57.783648","MEAN_MOTION":15.16820564,"ECCENTRICITY":0.0031819,"INCLINATION":97.5606,"RA_OF_ASC_NODE":107.0048,"ARG_OF_PERICENTER":291.4105,"MEAN_ANOMALY":68.3734,"EPHEMERIS_TYPE":0,"CLASSIFICATION_TYPE":"U","NORAD_CAT_ID":29507,"ELEMENT_SET_NO":999,"REV_AT_EPOCH":5904,"BSTAR":0.0002943,"MEAN_MOTION_DOT":5.79e-5,"MEAN_MOTION_DDOT":0},{"OBJECT_NAME":"CZ-2C R/B","OBJECT_ID":"2007-010B","EPOCH":"2026-03-03T04:10:35.593248","MEAN_MOTION":14.20243384,"ECCENTRICITY":0.0058073,"INCLINATION":98.3976,"RA_OF_ASC_NODE":175.7796,"ARG_OF_PERICENTER":313.9014,"MEAN_ANOMALY":45.7376,"EPHEMERIS_TYPE":0,"CLASSIFICATION_TYPE":"U","NORAD_CAT_ID":31114,"ELEMENT_SET_NO":999,"REV_AT_EPOCH":97879,"BSTAR":8.1753e-5,"MEAN_MOTION_DOT":1.36e-6,"MEAN_MOTION_DDOT":0},{"OBJECT_NAME":"COSMO-SKYMED 1","OBJECT_ID":"2007-023A","EPOCH":"2026-03-03T04:17:18.765888","MEAN_MOTION":14.96471999,"ECCENTRICITY":8.25e-5,"INCLINATION":97.8862,"RA_OF_ASC_NODE":253.1592,"ARG_OF_PERICENTER":87.3665,"MEAN_ANOMALY":272.7651,"EPHEMERIS_TYPE":0,"CLASSIFICATION_TYPE":"U","NORAD_CAT_ID":31598,"ELEMENT_SET_NO":999,"REV_AT_EPOCH":1393,"BSTAR":0.00033937,"MEAN_MOTION_DOT":3.793e-5,"MEAN_MOTION_DDOT":0},{"OBJECT_NAME":"COSMOS 2428","OBJECT_ID":"2007-029A","EPOCH":"2026-03-02T21:07:10.634016","MEAN_MOTION":14.12944293,"ECCENTRICITY":0.0008735,"INCLINATION":70.9419,"RA_OF_ASC_NODE":217.6361,"ARG_OF_PERICENTER":284.2813,"MEAN_ANOMALY":75.7338,"EPHEMERIS_TYPE":0,"CLASSIFICATION_TYPE":"U","NORAD_CAT_ID":31792,"ELEMENT_SET_NO":999,"REV_AT_EPOCH":96313,"BSTAR":7.0675e-5,"MEAN_MOTION_DOT":8.4e-7,"MEAN_MOTION_DDOT":0},{"OBJECT_NAME":"SL-16 R/B","OBJECT_ID":"2007-029B","EPOCH":"2026-03-02T19:03:40.608864","MEAN_MOTION":14.14834082,"ECCENTRICITY":0.00024173,"INCLINATION":70.9755,"RA_OF_ASC_NODE":186.8781,"ARG_OF_PERICENTER":278.4023,"MEAN_ANOMALY":233.4083,"EPHEMERIS_TYPE":0,"CLASSIFICATION_TYPE":"U","NORAD_CAT_ID":31793,"ELEMENT_SET_NO":999,"REV_AT_EPOCH":96439,"BSTAR":-7.2517866e-5,"MEAN_MOTION_DOT":-1.88e-6,"MEAN_MOTION_DDOT":0},{"OBJECT_NAME":"KORONAS-FOTON","OBJECT_ID":"2009-003A","EPOCH":"2026-03-03T02:03:20.306016","MEAN_MOTION":15.43131494,"ECCENTRICITY":0.001076,"INCLINATION":82.4283,"RA_OF_ASC_NODE":282.7444,"ARG_OF_PERICENTER":172.1551,"MEAN_ANOMALY":187.9866,"EPHEMERIS_TYPE":0,"CLASSIFICATION_TYPE":"U","NORAD_CAT_ID":33504,"ELEMENT_SET_NO":999,"REV_AT_EPOCH":94472,"BSTAR":0.00031432,"MEAN_MOTION_DOT":0.00013981,"MEAN_MOTION_DDOT":0},{"OBJECT_NAME":"CZ-2C R/B","OBJECT_ID":"2011-030B","EPOCH":"2026-03-02T20:31:22.855296","MEAN_MOTION":14.81188763,"ECCENTRICITY":0.0053055,"INCLINATION":97.853,"RA_OF_ASC_NODE":19.2554,"ARG_OF_PERICENTER":14.2735,"MEAN_ANOMALY":39.304,"EPHEMERIS_TYPE":0,"CLASSIFICATION_TYPE":"U","NORAD_CAT_ID":37731,"ELEMENT_SET_NO":999,"REV_AT_EPOCH":78908,"BSTAR":0.00027444,"MEAN_MOTION_DOT":2.133e-5,"MEAN_MOTION_DDOT":0},{"OBJECT_NAME":"H-2A R/B","OBJECT_ID":"2012-025E","EPOCH":"2026-03-02T21:39:21.656736","MEAN_MOTION":14.95093298,"ECCENTRICITY":0.0044012,"INCLINATION":98.4711,"RA_OF_ASC_NODE":28.4055,"ARG_OF_PERICENTER":336.6891,"MEAN_ANOMALY":23.2331,"EPHEMERIS_TYPE":0,"CLASSIFICATION_TYPE":"U","NORAD_CAT_ID":38341,"ELEMENT_SET_NO":999,"REV_AT_EPOCH":74720,"BSTAR":0.00044642,"MEAN_MOTION_DOT":4.919e-5,"MEAN_MOTION_DDOT":0},{"OBJECT_NAME":"SHIJIAN-16 (SJ-16)","OBJECT_ID":"2013-057A","EPOCH":"2026-03-03T04:38:13.929792","MEAN_MOTION":14.92311517,"ECCENTRICITY":0.0015707,"INCLINATION":74.9726,"RA_OF_ASC_NODE":197.3844,"ARG_OF_PERICENTER":129.4568,"MEAN_ANOMALY":230.8013,"EPHEMERIS_TYPE":0,"CLASSIFICATION_TYPE":"U","NORAD_CAT_ID":39358,"ELEMENT_SET_NO":999,"REV_AT_EPOCH":67053,"BSTAR":0.00064885,"MEAN_MOTION_DOT":6.622e-5,"MEAN_MOTION_DDOT":0},{"OBJECT_NAME":"SL-4 R/B","OBJECT_ID":"2014-021B","EPOCH":"2026-03-03T01:41:54.129696","MEAN_MOTION":15.3891573,"ECCENTRICITY":0.0098117,"INCLINATION":51.6081,"RA_OF_ASC_NODE":9.5619,"ARG_OF_PERICENTER":78.8685,"MEAN_ANOMALY":282.3311,"EPHEMERIS_TYPE":0,"CLASSIFICATION_TYPE":"U","NORAD_CAT_ID":39679,"ELEMENT_SET_NO":999,"REV_AT_EPOCH":65525,"BSTAR":0.00040645,"MEAN_MOTION_DOT":0.00018398,"MEAN_MOTION_DDOT":0},{"OBJECT_NAME":"ALOS-2","OBJECT_ID":"2014-029A","EPOCH":"2026-03-03T05:25:38.691264","MEAN_MOTION":14.79472939,"ECCENTRICITY":0.000148,"INCLINATION":97.9203,"RA_OF_ASC_NODE":160.9171,"ARG_OF_PERICENTER":100.2298,"MEAN_ANOMALY":259.9081,"EPHEMERIS_TYPE":0,"CLASSIFICATION_TYPE":"U","NORAD_CAT_ID":39766,"ELEMENT_SET_NO":999,"REV_AT_EPOCH":63591,"BSTAR":0.00040107,"MEAN_MOTION_DOT":2.945e-5,"MEAN_MOTION_DDOT":0},{"OBJECT_NAME":"YAOGAN-29","OBJECT_ID":"2015-069A","EPOCH":"2026-03-03T04:22:21.229824","MEAN_MOTION":14.82988877,"ECCENTRICITY":0.0002287,"INCLINATION":98.0153,"RA_OF_ASC_NODE":90.5944,"ARG_OF_PERICENTER":48.0257,"MEAN_ANOMALY":312.1151,"EPHEMERIS_TYPE":0,"CLASSIFICATION_TYPE":"U","NORAD_CAT_ID":41038,"ELEMENT_SET_NO":999,"REV_AT_EPOCH":55491,"BSTAR":0.00013621,"MEAN_MOTION_DOT":1.052e-5,"MEAN_MOTION_DDOT":0},{"OBJECT_NAME":"ASTRO-H (HITOMI)","OBJECT_ID":"2016-012A","EPOCH":"2026-03-03T02:09:19.628064","MEAN_MOTION":15.0994692,"ECCENTRICITY":0.0010024,"INCLINATION":31.0004,"RA_OF_ASC_NODE":39.1348,"ARG_OF_PERICENTER":265.526,"MEAN_ANOMALY":94.4233,"EPHEMERIS_TYPE":0,"CLASSIFICATION_TYPE":"U","NORAD_CAT_ID":41337,"ELEMENT_SET_NO":999,"REV_AT_EPOCH":55123,"BSTAR":0.0002502,"MEAN_MOTION_DOT":4.259e-5,"MEAN_MOTION_DDOT":0}]
